{
  "links" : {
    "next" : "https://api.nasa.gov/neo/rest/v1/feed?start_date=1998-09-09&end_date=1998-09-09&detailed=true&api_key=t0TVs3DtDT2H8Oy2Zy8m2eVrNsAVKAexjcZXUckd",
    "prev" : "https://api.nasa.gov/neo/rest/v1/feed?start_date=1998-09-07&end_date=1998-09-07&detailed=true&api_key=t0TVs3DtDT2H8Oy2Zy8m2eVrNsAVKAexjcZXUckd",
    "self" : "https://api.nasa.gov/neo/rest/v1/feed?start_date=1998-09-08&end_date=1998-09-08&detailed=true&api_key=t0TVs3DtDT2H8Oy2Zy8m2eVrNsAVKAexjcZXUckd"
  },
  "element_count" : 7,
  "near_earth_objects" : {
    "1998-09-08" : [ {
      "links" : {
        "self" : "https://api.nasa.gov/neo/rest/v1/neo/3014162?api_key=t0TVs3DtDT2H8Oy2Zy8m2eVrNsAVKAexjcZXUckd"
      },
      "neo_reference_id" : "3014162",
      "name" : "(1998 QV3)",
      "nasa_jpl_url" : "http://ssd.jpl.nasa.gov/sbdb.cgi?sstr=3014162",
      "absolute_magnitude_h" : 20.5,
      "estimated_diameter" : {
        "kilometers" : {
          "estimated_diameter_min" : 0.2111324448,
          "estimated_diameter_max" : 0.4721064988
        },
        "meters" : {
          "estimated_diameter_min" : 211.1324447897,
          "estimated_diameter_max" : 472.1064988055
        },
        "miles" : {
          "estimated_diameter_min" : 0.1311915784,
          "estimated_diameter_max" : 0.2933532873
        },
        "feet" : {
          "estimated_diameter_min" : 692.6917701639,
          "estimated_diameter_max" : 1548.9058855411
        }
      },
      "is_potentially_hazardous_asteroid" : false,
      "close_approach_data" : [ {
        "close_approach_date" : "1998-09-08",
        "epoch_date_close_approach" : 905238000000,
        "relative_velocity" : {
          "kilometers_per_second" : "9.7513600763",
          "kilometers_per_hour" : "35104.8962746363",
          "miles_per_hour" : "21812.8173546483"
        },
        "miss_distance" : {
          "astronomical" : "0.1698062952",
          "lunar" : "66.054649353",
          "kilometers" : "25402662",
          "miles" : "15784482"
        },
        "orbiting_body" : "Earth"
      } ],
      "orbital_data" : {
        "orbit_id" : "11",
        "orbit_determination_date" : "2017-04-06 09:17:44",
        "orbit_uncertainty" : "7",
        "minimum_orbit_intersection" : ".159943",
        "jupiter_tisserand_invariant" : "3.358",
        "epoch_osculation" : "2458000.5",
        "eccentricity" : ".5114831682449562",
        "semi_major_axis" : "2.315738538657362",
        "inclination" : "14.24861525615875",
        "ascending_node_longitude" : "332.8672693426393",
        "orbital_period" : "1287.160523624725",
        "perihelion_distance" : "1.13127725407795",
        "perihelion_argument" : "33.51119368952249",
        "aphelion_distance" : "3.500199823236775",
        "perihelion_time" : "2457520.930590701964",
        "mean_anomaly" : "134.1285598637797",
        "mean_motion" : ".2796853954052423",
        "equinox" : "J2000"
      }
    }, {
      "links" : {
        "self" : "https://api.nasa.gov/neo/rest/v1/neo/2137078?api_key=t0TVs3DtDT2H8Oy2Zy8m2eVrNsAVKAexjcZXUckd"
      },
      "neo_reference_id" : "2137078",
      "name" : "137078 (1998 XZ4)",
      "nasa_jpl_url" : "http://ssd.jpl.nasa.gov/sbdb.cgi?sstr=2137078",
      "absolute_magnitude_h" : 16.3,
      "estimated_diameter" : {
        "kilometers" : {
          "estimated_diameter_min" : 1.4606796427,
          "estimated_diameter_max" : 3.2661789745
        },
        "meters" : {
          "estimated_diameter_min" : 1460.6796427136,
          "estimated_diameter_max" : 3266.1789744576
        },
        "miles" : {
          "estimated_diameter_min" : 0.9076239703,
          "estimated_diameter_max" : 2.0295088955
        },
        "feet" : {
          "estimated_diameter_min" : 4792.2561990004,
          "estimated_diameter_max" : 10715.8106265596
        }
      },
      "is_potentially_hazardous_asteroid" : false,
      "close_approach_data" : [ {
        "close_approach_date" : "1998-09-08",
        "epoch_date_close_approach" : 905238000000,
        "relative_velocity" : {
          "kilometers_per_second" : "21.4845455542",
          "kilometers_per_hour" : "77344.3639950674",
          "miles_per_hour" : "48058.7799501573"
        },
        "miss_distance" : {
          "astronomical" : "0.324911407",
          "lunar" : "126.3905410767",
          "kilometers" : "48606056",
          "miles" : "30202404"
        },
        "orbiting_body" : "Earth"
      } ],
      "orbital_data" : {
        "orbit_id" : "80",
        "orbit_determination_date" : "2017-05-09 06:48:01",
        "orbit_uncertainty" : "0",
        "minimum_orbit_intersection" : ".299389",
        "jupiter_tisserand_invariant" : "3.548",
        "epoch_osculation" : "2458000.5",
        "eccentricity" : ".6379547499621221",
        "semi_major_axis" : "1.938665238367981",
        "inclination" : "23.15018515724092",
        "ascending_node_longitude" : "324.454697819794",
        "orbital_period" : "985.9449380402025",
        "perihelion_distance" : ".7018845409646777",
        "perihelion_argument" : "9.62714859598611",
        "aphelion_distance" : "3.175445935771283",
        "perihelion_time" : "2457963.105781672570",
        "mean_anomaly" : "13.65382393933013",
        "mean_motion" : ".3651319522118393",
        "equinox" : "J2000"
      }
    }, {
      "links" : {
        "self" : "https://api.nasa.gov/neo/rest/v1/neo/3147555?api_key=t0TVs3DtDT2H8Oy2Zy8m2eVrNsAVKAexjcZXUckd"
      },
      "neo_reference_id" : "3147555",
      "name" : "(2003 BR47)",
      "nasa_jpl_url" : "http://ssd.jpl.nasa.gov/sbdb.cgi?sstr=3147555",
      "absolute_magnitude_h" : 21.4,
      "estimated_diameter" : {
        "kilometers" : {
          "estimated_diameter_min" : 0.1394938229,
          "estimated_diameter_max" : 0.3119176705
        },
        "meters" : {
          "estimated_diameter_min" : 139.4938229344,
          "estimated_diameter_max" : 311.9176705226
        },
        "miles" : {
          "estimated_diameter_min" : 0.0866774163,
          "estimated_diameter_max" : 0.1938165949
        },
        "feet" : {
          "estimated_diameter_min" : 457.6569140361,
          "estimated_diameter_max" : 1023.3519701574
        }
      },
      "is_potentially_hazardous_asteroid" : true,
      "close_approach_data" : [ {
        "close_approach_date" : "1998-09-08",
        "epoch_date_close_approach" : 905238000000,
        "relative_velocity" : {
          "kilometers_per_second" : "19.3288245002",
          "kilometers_per_hour" : "69583.7682007747",
          "miles_per_hour" : "43236.6475245314"
        },
        "miss_distance" : {
          "astronomical" : "0.2462718906",
          "lunar" : "95.7997665405",
          "kilometers" : "36841752",
          "miles" : "22892402"
        },
        "orbiting_body" : "Earth"
      } ],
      "orbital_data" : {
        "orbit_id" : "30",
        "orbit_determination_date" : "2017-04-06 09:14:23",
        "orbit_uncertainty" : "2",
        "minimum_orbit_intersection" : ".00821447",
        "jupiter_tisserand_invariant" : "4.162",
        "epoch_osculation" : "2458000.5",
        "eccentricity" : ".500204618581255",
        "semi_major_axis" : "1.628235212203004",
        "inclination" : "4.420352694024873",
        "ascending_node_longitude" : "314.5558551777094",
        "orbital_period" : "758.8818057479712",
        "perihelion_distance" : ".8137844389224318",
        "perihelion_argument" : "112.5073822807987",
        "aphelion_distance" : "2.442685985483577",
        "perihelion_time" : "2457939.933367442604",
        "mean_anomaly" : "28.73173075901091",
        "mean_motion" : ".4743821729197683",
        "equinox" : "J2000"
      }
    } ]
  }
}